ORBCOMM-X               
1 21576U 91050C   25230.42483242  .00000240  00000+0  84010-4 0  9999
2 21576  98.3391 295.7446 0003714  18.8192 341.3135 14.43301693791097
ORBCOMM FM01            
1 23545U 95017A   25230.55157393  .00003819  00000+0  39740-3 0  9997
2 23545  69.9625 278.5555 0005504 248.1498 111.9072 14.90665184621807
ORBCOMM FM02            
1 23546U 95017B   25230.58991487  .00005315  00000+0  53574-3 0  9995
2 23546  69.9651 297.6374 0006676 242.6301 117.4175 14.91679534621463
ORBCOMM FM08            
1 25112U 97084A   25230.50366075  .00001201  00000+0  37447-3 0  9994
2 25112  45.0144  68.6816 0006174 197.6870 162.3768 14.45971778450399
ORBCOMM FM10            
1 25113U 97084B   25230.28675643  .00001141  00000+0  35944-3 0  9997
2 25113  45.0155  72.2134 0004917 160.4580 199.6461 14.45751742625502
ORBCOMM FM11            
1 25114U 97084C   25230.57854037  .00001126  00000+0  35706-3 0  9995
2 25114  45.0141  71.5593 0005711 164.5656 195.5370 14.45500066450502
ORBCOMM FM12            
1 25115U 97084D   25230.26365862  .00001078  00000+0  34346-3 0  9990
2 25115  45.0148  72.8136 0004753 158.5739 201.5312 14.45520200450255
ORBCOMM FM09            
1 25116U 97084E   25230.57784723  .00000990  00000+0  31948-3 0  9993
2 25116  45.0150  72.3015 0006138 151.8623 208.2561 14.45392721450500
